STARLINK-35664          
1 66223U 25244T   25328.83337963  .00045622  00000+0  11456-2 0  9995
2 66223  53.1592   0.1390 0001543  65.3784 188.0180 15.39568974  5441
STARLINK-35733          
1 66224U 25244U   25328.58700862  .00076376  00000+0  15083-2 0  9990
2 66224  53.1608   1.2297 0003332 159.5916 200.5225 15.46494543  5526
STARLINK-35734          
1 66225U 25244V   25328.83337963 -.01861390  00000+0 -47180-1 0  9990
2 66225  53.1598   0.0941 0001819  82.7532 193.1245 15.42413003  5333
STARLINK-34466          
1 66226U 25244W   25328.83337963 -.02039558  00000+0 -47318-1 0  9998
2 66226  53.1600   0.0611 0001518  95.9346 196.0130 15.45319246  5654
STARLINK-34882          
1 66227U 25244X   25328.71599296 -.00199646  00000+0 -40569-2 0  9990
2 66227  53.1606   0.6153 0008305  19.2590 340.8730 15.46419949  5544
STARLINK-35731          
1 66228U 25244Y   25328.32770226  .00085036  00000+0  15188-2 0  9996
2 66228  53.1597   2.4560 0001441  41.9102 318.2017 15.49339259  5489
STARLINK-35758          
1 66229U 25244Z   25328.58538745  .00098225  00000+0  17498-2 0  9993
2 66229  53.1596   1.2202 0004256 154.3024 205.8197 15.49338232  5523
STARLINK-35736          
1 66230U 25244AA  25328.58504502  .00061173  00000+0  10983-2 0  9993
2 66230  53.1598   1.2179 0001951 136.0257 224.0908 15.49334895  5528
STARLINK-35735          
1 66231U 25244AB  25328.58470331  .00065704  00000+0  11785-2 0  9991
2 66231  53.1600   1.2150 0001311 101.8054 258.3102 15.49333264  5522
STARLINK-35753          
1 66232U 25244AC  25328.45534115  .00054812  00000+0  98512-3 0  9991
2 66232  53.1605   1.8365 0001277  78.5188 281.5965 15.49353515  5505
STARLINK-35626          
1 66233U 25244AD  25328.58401741  .00072320  00000+0  12950-2 0  9999
2 66233  53.1600   1.2120 0001259  85.9736 274.1417 15.49339197  5527
STARLINK-35537          
1 66234U 25245A   25328.83337963  .00014069  00000+0  36134-3 0  9990
2 66234  53.1593  54.0637 0001238  95.7328  84.4521 15.39594947  5221
